GLOBALSTAR M063         
1 26081U 00008A   25252.44755383 -.00000079  00000+0  46613-4 0  9990
2 26081  51.9928 249.6612 0004578 117.2432  39.2686 11.86175924167571
GLOBALSTAR M062         
1 26082U 00008B   25252.38695395 -.00000088  00000+0  75961-4 0  9998
2 26082  51.9832 208.1749 0007047 294.5654 236.0028 12.43471745507092
GLOBALSTAR M060         
1 26083U 00008C   25252.94400247 -.00000079  00000+0  11589-3 0  9996
2 26083  52.0013 178.5356 0003316 306.2191 129.9493 12.17665987162695
GLOBALSTAR M064         
1 26084U 00008D   25252.41116065 -.00000058  00000+0  35677-3 0  9992
2 26084  52.0064 347.5922 0001449 196.4499 163.6287 11.88535785177112
GLOBALSTAR M065         
1 31571U 07020A   25252.41975042 -.00000092  00000+0  67856-4 0  9991
2 31571  51.9916 329.8908 0010593 133.8828 307.0147 12.62010421844041
GLOBALSTAR M069         
1 31573U 07020C   25252.40338556 -.00000071  00000+0  20359-3 0  9998
2 31573  52.0057 326.8511 0001165 288.5890 151.9918 12.23461741844437
GLOBALSTAR M072         
1 31574U 07020D   25252.81539484 -.00000055  00000+0  40288-3 0  9992
2 31574  51.9917 126.6698 0001567 101.7601 337.3481 11.91651577841552
GLOBALSTAR M071         
1 31576U 07020F   25252.47678418 -.00000147  00000+0 -55595-3 0  9997
2 31576  52.0093 354.6370 0000265 238.4416 202.4664 12.18257675505213
